{
  "type": "FeatureCollection",
  "features": [
    {
      "type": "Feature",
      "properties": {
        "norad_id": 66519,
        "name": "STARLINK-35931",
        "group": "last-30-days",
        "lat": 41.99937433996227,
        "lon": 163.14504478319748,
        "alt_km": 371.6961630835485,
        "timestamp": "2025-12-06T22:38:41.508450+00:00",
        "meta_object_name": "STARLINK-35931",
        "meta_object_id": "2025-265D",
        "meta_epoch": "2025-12-06T14:00:01.999872",
        "meta_mean_motion": 15.65139223,
        "meta_eccentricity": 0.00012081,
        "meta_inclination": 43.0002,
        "meta_ra_of_asc_node": 90.2274,
        "meta_arg_of_pericenter": 280.0777,
        "meta_mean_anomaly": 288.0287,
        "meta_ephemeris_type": 0,
        "meta_classification_type": "U",
        "meta_norad_cat_id": 66519,
        "meta_element_set_no": 999,
        "meta_rev_at_epoch": 400,
        "meta_bstar": -0.022269338,
        "meta_mean_motion_dot": -0.0199102,
        "meta_mean_motion_ddot": 0,
        "tle_line1": "1 66519U 25265D   25340.58335648 -.01991020  00000+0 -22269-1 0  9998",
        "tle_line2": "2 66519  43.0002  90.2274 0001208 280.0777 288.0287 15.65139223  4000"
      },
      "geometry": {
        "type": "Point",
        "coordinates": [
          163.14504478319748,
          41.99937433996227
        ]
      }
    },
    {
      "type": "Feature",
      "properties": {
        "norad_id": 66520,
        "name": "STARLINK-35952",
        "group": "last-30-days",
        "lat": 42.308054556536646,
        "lon": 165.7003522434988,
        "alt_km": 371.72108622268934,
        "timestamp": "2025-12-06T22:38:41.508461+00:00",
        "meta_object_name": "STARLINK-35952",
        "meta_object_id": "2025-265E",
        "meta_epoch": "2025-12-06T14:00:01.999872",
        "meta_mean_motion": 15.65086386,
        "meta_eccentricity": 0.00013745,
        "meta_inclination": 42.9995,
        "meta_ra_of_asc_node": 90.2228,
        "meta_arg_of_pericenter": 286.3919,
        "meta_mean_anomaly": 283.671,
        "meta_ephemeris_type": 0,
        "meta_classification_type": "U",
        "meta_norad_cat_id": 66520,
        "meta_element_set_no": 999,
        "meta_rev_at_epoch": 400,
        "meta_bstar": -0.021655433,
        "meta_mean_motion_dot": -0.01939085,
        "meta_mean_motion_ddot": 0,
        "tle_line1": "1 66520U 25265E   25340.58335648 -.01939085  00000+0 -21655-1 0  9991",
        "tle_line2": "2 66520  42.9995  90.2228 0001374 286.3919 283.6710 15.65086386  4004"
      },
      "geometry": {
        "type": "Point",
        "coordinates": [
          165.7003522434988,
          42.308054556536646
        ]
      }
    },
    {
      "type": "Feature",
      "properties": {
        "norad_id": 66521,
        "name": "STARLINK-35915",
        "group": "last-30-days",
        "lat": 42.560028518413674,
        "lon": 168.26888833729595,
        "alt_km": 371.60311445220395,
        "timestamp": "2025-12-06T22:38:41.508471+00:00",
        "meta_object_name": "STARLINK-35915",
        "meta_object_id": "2025-265F",
        "meta_epoch": "2025-12-06T14:00:01.999872",
        "meta_mean_motion": 15.65136583,
        "meta_eccentricity": 0.00011978,
        "meta_inclination": 43.0003,
        "meta_ra_of_asc_node": 90.2173,
        "meta_arg_of_pericenter": 283.3062,
        "meta_mean_anomaly": 288.636,
        "meta_ephemeris_type": 0,
        "meta_classification_type": "U",
        "meta_norad_cat_id": 66521,
        "meta_element_set_no": 999,
        "meta_rev_at_epoch": 400,
        "meta_bstar": -0.022241716,
        "meta_mean_motion_dot": -0.01988655,
        "meta_mean_motion_ddot": 0,
        "tle_line1": "1 66521U 25265F   25340.58335648 -.01988655  00000+0 -22242-1 0  9992",
        "tle_line2": "2 66521  43.0003  90.2173 0001197 283.3062 288.6360 15.65136583  4006"
      },
      "geometry": {
        "type": "Point",
        "coordinates": [
          168.26888833729595,
          42.560028518413674
        ]
      }
    },
    {
      "type": "Feature",
      "properties": {
        "norad_id": 66522,
        "name": "STARLINK-35946",
        "group": "last-30-days",
        "lat": 42.75323670678792,
        "lon": 170.86101427487665,
        "alt_km": 371.6055343601229,
        "timestamp": "2025-12-06T22:38:41.508483+00:00",
        "meta_object_name": "STARLINK-35946",
        "meta_object_id": "2025-265G",
        "meta_epoch": "2025-12-06T14:00:01.999872",
        "meta_mean_motion": 15.65137578,
        "meta_eccentricity": 0.00011939,
        "meta_inclination": 43.0001,
        "meta_ra_of_asc_node": 90.2126,
        "meta_arg_of_pericenter": 281.5157,
        "meta_mean_anomaly": 292.3443,
        "meta_ephemeris_type": 0,
        "meta_classification_type": "U",
        "meta_norad_cat_id": 66522,
        "meta_element_set_no": 999,
        "meta_rev_at_epoch": 400,
        "meta_bstar": -0.022268678,
        "meta_mean_motion_dot": -0.01990841,
        "meta_mean_motion_ddot": 0,
        "tle_line1": "1 66522U 25265G   25340.58335648 -.01990841  00000+0 -22269-1 0  9992",
        "tle_line2": "2 66522  43.0001  90.2126 0001193 281.5157 292.3443 15.65137578  4003"
      },
      "geometry": {
        "type": "Point",
        "coordinates": [
          170.86101427487665,
          42.75323670678792
        ]
      }
    },
    {
      "type": "Feature",
      "properties": {
        "norad_id": 66523,
        "name": "STARLINK-35969",
        "group": "last-30-days",
        "lat": 42.88770839022692,
        "lon": 173.4660320518872,
        "alt_km": 371.59466281683217,
        "timestamp": "2025-12-06T22:38:41.508493+00:00",
        "meta_object_name": "STARLINK-35969",
        "meta_object_id": "2025-265H",
        "meta_epoch": "2025-12-06T14:00:01.999872",
        "meta_mean_motion": 15.65134659,
        "meta_eccentricity": 0.00011491,
        "meta_inclination": 43.0002,
        "meta_ra_of_asc_node": 90.208,
        "meta_arg_of_pericenter": 277.8779,
        "meta_mean_anomaly": 297.9019,
        "meta_ephemeris_type": 0,
        "meta_classification_type": "U",
        "meta_norad_cat_id": 66523,
        "meta_element_set_no": 999,
        "meta_rev_at_epoch": 400,
        "meta_bstar": -0.022230031,
        "meta_mean_motion_dot": -0.01987566,
        "meta_mean_motion_ddot": 0,
        "tle_line1": "1 66523U 25265H   25340.58335648 -.01987566  00000+0 -22230-1 0  9991",
        "tle_line2": "2 66523  43.0002  90.2080 0001149 277.8779 297.9019 15.65134659  4000"
      },
      "geometry": {
        "type": "Point",
        "coordinates": [
          173.4660320518872,
          42.88770839022692
        ]
      }
    },
    {
      "type": "Feature",
      "properties": {
        "norad_id": 66524,
        "name": "STARLINK-35687",
        "group": "last-30-days",
        "lat": 42.96250079765966,
        "lon": 176.0795621137284,
        "alt_km": 371.6404338343209,
        "timestamp": "2025-12-06T22:38:41.508507+00:00",
        "meta_object_name": "STARLINK-35687",
        "meta_object_id": "2025-265J",
        "meta_epoch": "2025-12-06T14:00:01.999872",
        "meta_mean_motion": 15.65133671,
        "meta_eccentricity": 0.00012266,
        "meta_inclination": 43.0001,
        "meta_ra_of_asc_node": 90.2026,
        "meta_arg_of_pericenter": 278.7747,
        "meta_mean_anomaly": 298.9219,
        "meta_ephemeris_type": 0,
        "meta_classification_type": "U",
        "meta_norad_cat_id": 66524,
        "meta_element_set_no": 999,
        "meta_rev_at_epoch": 400,
        "meta_bstar": -0.022209019,
        "meta_mean_motion_dot": -0.01985902,
        "meta_mean_motion_ddot": 0,
        "tle_line1": "1 66524U 25265J   25340.58335648 -.01985902  00000+0 -22209-1 0  9990",
        "tle_line2": "2 66524  43.0001  90.2026 0001226 278.7747 298.9219 15.65133671  4007"
      },
      "geometry": {
        "type": "Point",
        "coordinates": [
          176.0795621137284,
          42.96250079765966
        ]
      }
    },
    {
      "type": "Feature",
      "properties": {
        "norad_id": 66525,
        "name": "STARLINK-35975",
        "group": "last-30-days",
        "lat": 42.97748366035797,
        "lon": 178.6979047448651,
        "alt_km": 371.6357253428041,
        "timestamp": "2025-12-06T22:38:41.508517+00:00",
        "meta_object_name": "STARLINK-35975",
        "meta_object_id": "2025-265K",
        "meta_epoch": "2025-12-06T14:00:01.999872",
        "meta_mean_motion": 15.65135624,
        "meta_eccentricity": 0.00012028,
        "meta_inclination": 43,
        "meta_ra_of_asc_node": 90.1981,
        "meta_arg_of_pericenter": 278.0388,
        "meta_mean_anomaly": 301.5739,
        "meta_ephemeris_type": 0,
        "meta_classification_type": "U",
        "meta_norad_cat_id": 66525,
        "meta_element_set_no": 999,
        "meta_rev_at_epoch": 400,
        "meta_bstar": -0.022237469,
        "meta_mean_motion_dot": -0.01988258,
        "meta_mean_motion_ddot": 0,
        "tle_line1": "1 66525U 25265K   25340.58335648 -.01988258  00000+0 -22237-1 0  9999",
        "tle_line2": "2 66525  43.0000  90.1981 0001202 278.0388 301.5739 15.65135624  4002"
      },
      "geometry": {
        "type": "Point",
        "coordinates": [
          178.6979047448651,
          42.97748366035797
        ]
      }
    }
  ]
}